HST                     
1 20580U 90037B   26200.34608724  .00002982  00000+0  89068-4 0  9993
2 20580  28.4721 220.7198 0002147 143.8470 216.2271 15.31084694793507
POLAR                   
1 23802U 96013A   26199.61678930  .00000158  00000+0  00000+0 0  9993
2 23802  79.8974 226.6789 6501891 207.9968  91.9609  1.29846053145262
SWAS                    
1 25560U 98071A   26200.81302498  .00001526  00000+0  10084-3 0  9997
2 25560  69.8945 143.3731 0007610 225.4331 134.6212 15.09763582502199
CXO                     
1 25867U 99040B   26203.75752756  .00000588  00000+0  00000+0 0  9996
2 25867  56.6521 115.7082 7776511 309.9609   0.5575  0.37802047 17459
XMM-NEWTON              
1 25989U 99066A   26201.25992622 -.00000007  00000+0  00000+0 0  9997
2 25989  64.3074 282.5600 4664570  64.3171   0.0365  0.50127970 23163
TERRA                   
1 25994U 99068A   26200.82984250  .00000153  00000+0  40135-4 0  9994
2 25994  97.9437 249.0788 0003572 113.7703 357.4701 14.61125686414373
CLUSTER II-FM7 (SAMBA)  
1 26410U 00041A   26201.60182196  .00010308 -30415-5  00000+0 0  9992
2 26410 149.8020  56.9135 9091714 274.4939 359.4480  0.44850593 20460
CLUSTER II-FM8 (TANGO)  
1 26464U 00045B   26199.95355119  .00014903 -89736-5  00000+0 0  9991
2 26464 150.0065  57.8200 9095390 275.2268   2.0610  0.44421506 20456
ODIN                    
1 26702U 01007A   26200.33231481  .00298908  35583-4  91389-3 0  9997
2 26702  97.3680 243.6758 0004984 151.8712 208.2832 15.91901794394486
TIMED                   
1 26998U 01055B   26200.65713193  .00000509  00000+0  49791-4 0  9997
2 26998  74.0669 169.6374 0002338 295.5776  64.5166 14.95349693335676
CORIOLIS                
1 27640U 03001A   26200.75194569  .00000030  00000+0  34792-4 0  9990
2 27640  98.7136 207.1406 0015088 117.0435 243.2283 14.19952562218849
SORCE                   
1 27651U 03004A   26200.01651124  .00001237  00000+0  98977-4 0  9994
2 27651  39.9916  80.0556 0018755 280.0785  79.7893 15.03852593276694
MOST                    
1 27843U 03031D   26200.45294611  .00000011  00000+0  25123-4 0  9991
2 27843  98.7055 207.7296 0010338 153.2811 206.8901 14.21328228195294
SCISAT 1                
1 27858U 03036A   26200.84205757  .00000262  00000+0  38082-4 0  9994
2 27858  73.9302 106.4622 0007140 173.3079 186.8194 14.81481808236280
SWIFT                   
1 28485U 04047A   26200.59208051  .00038819  00000+0  28094-3 0  9996
2 28485  20.5521 294.3367 0002558  73.2137 286.8590 15.71507596191961
HINODE (SOLAR-B)        
1 29479U 06041A   26200.47945767  .00000255  00000+0  52139-4 0  9996
2 29479  98.0548 216.1562 0017387 180.6910 179.4274 14.68661071 59616
SHIJIAN-6 02A (SJ-6 02A)
1 29505U 06046A   26200.87171400  .00001982  00000+0  10302-3 0  9993
2 29505  97.6338 242.1881 0003968  53.0340 307.1255 15.17270617 77224
SHIJIAN-6 02B (SJ-6 02B)
1 29506U 06046B   26200.86925567  .00000175  00000+0  18302-4 0  9996
2 29506  97.7139 229.7252 0012808 319.5779  40.4492 15.01441048 75642
FGRST (GLAST)           
1 33053U 08029A   26200.76967764  .00001783  00000+0  57896-4 0  9992
2 33053  25.5829 338.2197 0008027 354.7028   5.3425 15.24091104   664
SDO                     
1 36395U 10005A   26200.24111708 -.00000094  00000+0  00000+0 0  9998
2 36395  34.7163  85.8540 0001721  43.5863 152.2121  1.00277469 60389
CRYOSAT 2               
1 36508U 10013A   26200.81859726  .00000062  00000+0  14712-4 0  9999
2 36508  92.0356 285.2345 0002456  98.8465 261.3021 14.51899274862815
X-SAT                   
1 37389U 11015C   26200.87092782 -.00000214  00000+0 -73267-4 0  9998
2 37389  98.3537 176.3412 0012777 245.5515 114.4333 14.25213742792336
GCOM-W1 (SHIZUKU)       
1 38337U 12025A   26200.78041566  .00000181  00000+0  50281-4 0  9990
2 38337  98.2024 140.8431 0001278  79.4804 301.8811 14.57092276753787
NUSTAR                  
1 38358U 12031A   26200.91667823  .00004179  00000+0  20330-3 0  9997
2 38358   6.0249 148.5732 0008631 240.6645 287.8429 15.09065055  1305
NEOSSAT                 
1 39089U 13009D   26200.47427082  .00000045  00000+0  30283-4 0  9994
2 39089  98.4193  19.7415 0011687 145.1253 215.0701 14.35836469701379
BRITE-AUSTRIA           
1 39091U 13009F   26200.73542264  .00000056  00000+0  33534-4 0  9990
2 39091  98.4013  19.3683 0011001 138.0696 222.1335 14.36553479701727
IRIS                    
1 39197U 13033A   26200.48796936  .00000445  00000+0  57185-4 0  9993
2 39197  97.9318  39.6631 0023610 210.3759 149.6090 14.85941630705175
HISAKI (SPRINT-A)       
1 39253U 13049A   26200.31286360  .00000090  00000+0  31399-4 0  9995
2 39253  29.7218  56.6784 0136972 277.2426  81.2594 13.55546963635782
CASSIOPE                
1 39265U 13055A   26200.80316890  .00015261 -52751-6  16325-3 0  9996
2 39265  80.9136  27.0224 0282017 312.2468  45.5146 15.27570999672641
STSAT-3                 
1 39422U 13066G   26200.87132818  .00001730  00000+0  13332-3 0  9999
2 39422  97.6209 170.2322 0008815 286.2860  73.7395 15.02903327689117
SWARM B                 
1 39451U 13067A   26200.79978295  .00001827  00000+0  64141-4 0  9992
2 39451  87.7465 332.4103 0002210  87.1544 272.9958 15.28734168688224
